COSMOS 2433 (720)       
1 32275U 07052A   22039.75808473 -.00000064  00000+0  00000+0 0  9990
2 32275  66.0842   8.9400 0004768 269.3271 260.6188  2.13104130111226
COSMOS 2432 (719)       
1 32276U 07052B   22039.76701645 -.00000064  00000+0  00000+0 0  9995
2 32276  66.0965   9.0381 0011972 320.0935 165.3446  2.13103456111228
COSMOS 2434 (721)       
1 32393U 07065A   22039.67351531  .00000078  00000+0  00000+0 0  9998
2 32393  64.4073 245.8252 0004896  73.0167 281.1424  2.13103082109928
COSMOS 2436 (723)       
1 32395U 07065C   22039.26221978  .00000073  00000+0  00000+0 0  9991
2 32395  64.4145 245.8977 0016921   7.8397 166.7267  2.13102634109853
COSMOS 2456 (730)       
1 36111U 09070A   22039.54888163 -.00000033  00000+0  00000+0 0  9992
2 36111  64.3219 125.4809 0003122 306.3158 119.6075  2.13099130 94596
COSMOS 2457 (733)       
1 36112U 09070B   22039.30930572 -.00000031  00000+0  00000+0 0  9997
2 36112  64.3048 125.3679 0005611 166.6507 201.7474  2.13101316 94597
COSMOS 2461 (735)       
1 36401U 10007B   22039.50222311 -.00000065  00000+0  00000+0 0  9994
2 36401  65.9709   7.8044 0020831 359.5537 191.6496  2.13103710 92944
COSMOS 2460 (732)       
1 36402U 10007C   22039.42610628 -.00000066  00000+0  00000+0 0  9999
2 36402  65.9574   7.7594 0002474 297.0177 142.9889  2.13106422 92941
COSMOS 2464 (736)       
1 37139U 10041C   22039.77605579  .00000080  00000+0  00000+0 0  9997
2 37139  64.0067 244.9608 0030291  13.6553 278.3571  2.13100777 89007
COSMOS 2476 (744)       
1 37867U 11064A   22039.73197017 -.00000033  00000+0  00000+0 0  9999
2 37867  64.6132 126.7806 0021454 234.9650 235.8002  2.13101836 79944
COSMOS 2477 (745)       
1 37868U 11064B   22039.37224060 -.00000031  00000+0  00000+0 0  9997
2 37868  64.6208 126.8562 0018793 235.8666 137.1185  2.13101580 79894
COSMOS 2475 (743)       
1 37869U 11064C   22039.40971620 -.00000031  00000+0  00000+0 0  9993
2 37869  64.6280 126.8617 0022685 254.6968 104.9423  2.13101730 79899
COSMOS 2485 (747)       
1 39155U 13019A   22039.53562697 -.00000031  00000+0  00000+0 0  9999
2 39155  64.7778 127.1872 0021982 230.7804 133.7810  2.13101767 68418
COSMOS 2492 (754)       
1 39620U 14012A   22040.07475255 -.00000066  00000+0  00000+0 0  9992
2 39620  65.8456   7.4379 0015227 318.9093 133.8391  2.13103179 61378
COSMOS 2500 (755)       
1 40001U 14032A   22039.44806377 -.00000066  00000+0  00000+0 0  9991
2 40001  65.7847   7.3288 0006744 225.2691 325.7060  2.13102410 59573
COSMOS 2501 (702K)      
1 40315U 14075A   22039.22857132  .00000071  00000+0  00000+0 0  9992
2 40315  63.7159 245.6984 0016129 206.3699 343.5922  2.13101337 55973
COSMOS 2514 (751)       
1 41330U 16008A   22039.67489840 -.00000067  00000+0  00000+0 0  9990
2 41330  65.5854   7.0450 0010611 226.6843 321.9033  2.13102760 46746
COSMOS 2516 (753)       
1 41554U 16032A   22039.53497671  .00000075  00000+0  00000+0 0  9999
2 41554  63.9404 245.9274 0011874 213.6894 127.7602  2.13105997 44341
COSMOS 2522 (752)       
1 42939U 17055A   22039.64826997  .00000076  00000+0  00000+0 0  9993
2 42939  64.1761 246.2803 0004996 246.9786  40.2617  2.13101952 34101
COSMOS 2527 (756)       
1 43508U 18053A   22039.69535447 -.00000032  00000+0  00000+0 0  9990
2 43508  64.9402 127.1550 0008116 225.8189 129.6534  2.13102529 28396
COSMOS 2529 (757)       
1 43687U 18086A   22040.05732951  .00000081  00000+0  00000+0 0  9998
2 43687  64.3899 246.5480 0007550 278.0311 278.5413  2.13102050 25424
COSMOS 2534 (758)       
1 44299U 19030A   22038.38520731  .00000061  00000+0  00000+0 0  9990
2 44299  64.4610 246.4780 0011032 298.1130 190.3175  2.13101935 21030
COSMOS 2544 (759)       
1 44850U 19088A   22039.64731440 -.00000032  00000+0  00000+0 0  9996
2 44850  64.9245 127.0118 0012134 257.0463 105.1339  2.13102335 16831
COSMOS 2545 (760)       
1 45358U 20018A   22039.95685986 -.00000068  00000+0  00000+0 0  9991
2 45358  64.9223   7.7499 0010807 258.1257 191.1975  2.13102664 14794
COSMOS 2547 (705K)      
1 46805U 20075A   22039.61452278  .00000078  00000+0  00000+0 0  9991
2 46805  64.6840 245.8223 0005249 249.8718 148.8909  2.13102908 10037
